NORAD_CAT_ID,OBJECT_NAME,OBJECT_TYPE,EPOCH,MEAN_MOTION,ECCENTRICITY,INCLINATION,RA_OF_ASC_NODE,ARG_OF_PERICENTER,MEAN_ANOMALY,BSTAR,MEAN_MOTION_DOT,MEAN_MOTION_DDOT,TLE_LINE0,TLE_LINE1,TLE_LINE2,SEMIMAJOR_AXIS,PERIOD,APOGEE,PERIGEE,DECAYED
56483.0,STARLINK-5868,PAYLOAD,2023-06-09 09:44:24,15.69923039,0.0003543,69.9969,161.8402,263.7314,96.3478,1.2675e-05,1.311e-05,0.0,0 STARLINK-5868,1 56483U 23064AM  23160.40583864  .00001311  00000-0  12675-4 0  9992,2 56483  69.9969 161.8402 0003543 263.7314  96.3478 15.69923039  5031,6737.254,91.724,361.506,356.732,0.0
56483.0,STARLINK-5868,PAYLOAD,2023-06-09 17:23:10,15.69919403,0.0003634,69.9969,160.9449,265.1157,94.9624,7.5583e-06,6.96e-06,0.0,0 STARLINK-5868,1 56483U 23064AM  23160.72442526  .00000696  00000-0  75583-5 0  9999,2 56483  69.9969 160.9449 0003634 265.1157  94.9624 15.69919403  4737,6737.265,91.724,361.578,356.681,0.0
56483.0,STARLINK-5868,PAYLOAD,2023-06-10 10:12:25,15.69932035,0.0003378,69.9969,158.974,263.3544,96.7267,1.398e-05,1.469e-05,0.0,0 STARLINK-5868,1 56483U 23064AM  23161.42530017  .00001469  00000-0  13980-4 0  9991,2 56483  69.9969 158.9740 0003378 263.3544  96.7267 15.69932035  5193,6737.228,91.724,361.369,356.818,0.0
56483.0,STARLINK-5868,PAYLOAD,2023-06-10 11:44:11,15.69927395,0.0003607,69.9963,158.7936,265.5151,94.5632,1.8802e-05,2.049e-05,0.0,0 STARLINK-5868,1 56483U 23064AM  23161.48901898  .00002049  00000-0  18802-4 0  9999,2 56483  69.9963 158.7936 0003607 265.5151  94.5632 15.69927395  4852,6737.242,91.724,361.537,356.677,0.0
56483.0,STARLINK-5868,PAYLOAD,2023-06-11 06:05:13,15.69924951,0.0003517,69.9968,156.6471,265.3629,94.7165,7.219e-06,6.55e-06,0.0,0 STARLINK-5868,1 56483U 23064AM  23162.25362341  .00000655  00000-0  72190-5 0  9991,2 56483  69.9968 156.6471 0003517 265.3629  94.7165 15.69924951  5327,6737.249,91.724,361.483,356.744,0.0
56483.0,STARLINK-5868,PAYLOAD,2023-06-11 12:12:13,15.69926437,0.0003534,69.9968,155.9308,263.9137,96.1656,8.6659e-06,8.29e-06,0.0,0 STARLINK-5868,1 56483U 23064AM  23162.50848907  .00000829  00000-0  86659-5 0  9994,2 56483  69.9968 155.9308 0003534 263.9137  96.1656 15.69926437  5013,6737.244,91.724,361.49,356.729,0.0
56483.0,STARLINK-5868,PAYLOAD,2023-06-11 16:47:29,15.69922155,0.000349,69.9965,155.3935,265.5841,94.4956,9.0108e-06,8.71e-06,0.0,0 STARLINK-5868,1 56483U 23064AM  23162.69964227  .00000871  00000-0  90108-5 0  9999,2 56483  69.9965 155.3935 0003490 265.5841  94.4956 15.69922155  5041,6737.257,91.724,361.473,356.77,0.0
56483.0,STARLINK-5868,PAYLOAD,2023-06-12 01:57:59,15.69927056,0.0003046,69.9978,154.3186,266.9912,93.0935,3.6804e-06,2.3e-06,0.0,0 STARLINK-5868,1 56483U 23064AM  23163.08194180  .00000230  00000-0  36804-5 0  9998,2 56483  69.9978 154.3186 0003046 266.9912  93.0935 15.69927056  5107,6737.243,91.724,361.16,357.056,0.0
56483.0,STARLINK-5868,PAYLOAD,2023-06-12 08:04:59,15.69935533,0.0003409,69.9973,153.6025,271.2238,88.8567,3.9914e-06,2.67e-06,0.0,0 STARLINK-5868,1 56483U 23064AM  23163.33680197  .00000267  00000-0  39914-5 0  9999,2 56483  69.9973 153.6025 0003409 271.2238  88.8567 15.69935533  5493,6737.218,91.724,361.38,356.787,0.0
56483.0,STARLINK-5868,PAYLOAD,2023-06-12 09:36:45,15.69930515,0.0003068,69.9986,153.4237,261.6026,98.4822,3.3027e-06,1.85e-06,0.0,0 STARLINK-5868,1 56483U 23064AM  23163.40052268  .00000185  00000-0  33027-5 0  9997,2 56483  69.9986 153.4237 0003068 261.6026  98.4822 15.69930515  5158,6737.233,91.724,361.165,357.031,0.0
56483.0,STARLINK-5868,PAYLOAD,2023-06-13 05:29:31,15.69932529,0.0003072,69.9966,151.0922,260.7186,99.3663,1.1189e-05,1.133e-05,0.0,0 STARLINK-5868,1 56483U 23064AM  23164.22883728  .00001133  00000-0  11189-4 0  9999,2 56483  69.9966 151.0922 0003072 260.7186  99.3663 15.69932529  5636,6737.227,91.724,361.162,357.022,0.0
56483.0,STARLINK-5868,PAYLOAD,2023-06-13 07:01:16,15.69933248,0.000326,69.9972,150.914,262.8267,97.2558,1.1632e-05,1.187e-05,0.0,0 STARLINK-5868,1 56483U 23064AM  23164.29255386  .00001187  00000-0  11632-4 0  9991,2 56483  69.9972 150.9140 0003260 262.8267  97.2558 15.69933248  5296,6737.225,91.724,361.286,356.894,0.0
56483.0,STARLINK-5868,PAYLOAD,2023-06-13 22:18:48,15.69921447,0.000323,69.997,149.1236,264.6467,95.436,7.5626e-06,6.97e-06,0.0,0 STARLINK-5868,1 56483U 23064AM  23164.92972927  .00000697  00000-0  75626-5 0  9997,2 56483  69.9970 149.1236 0003230 264.6467  95.4360 15.69921447  5748,6737.259,91.724,361.3,356.948,0.0
56483.0,STARLINK-5868,PAYLOAD,2023-06-14 10:32:49,15.69923977,0.0003402,69.9973,147.6918,266.0033,94.0773,-2.2411e-06,-4.82e-06,0.0,0 STARLINK-5868,1 56483U 23064AM  23165.43946335 -.00000482  00000-0 -22411-5 0  9996,2 56483  69.9973 147.6918 0003402 266.0033  94.0773 15.69923977  5470,6737.251,91.724,361.409,356.824,0.0
56483.0,STARLINK-5868,PAYLOAD,2023-06-14 22:46:50,15.69921412,0.0002957,70.0009,146.2611,262.2975,97.7885,8.7658e-06,8.41e-06,0.0,0 STARLINK-5868,1 56483U 23064AM  23165.94919813  .00000841  00000-0  87658-5 0  9994,2 56483  70.0009 146.2611 0002957 262.2975  97.7885 15.69921412  5909,6737.259,91.724,361.116,357.132,0.0
56483.0,STARLINK-5868,PAYLOAD,2023-06-15 11:00:52,15.69919638,0.0002571,69.9979,144.8256,290.7343,69.3577,-7.9824e-06,-1.172e-05,0.0,0 STARLINK-5868,1 56483U 23064AM  23166.45893702 -.00001172  00000-0 -79824-5 0  9995,2 56483  69.9979 144.8256 0002571 290.7343  69.3577 15.69919638  5638,6737.264,91.724,360.861,357.397,0.0
56483.0,STARLINK-5868,PAYLOAD,2023-06-15 15:36:06,15.69926955,0.0003602,69.9985,144.2874,266.8655,93.2128,1.6142e-05,1.729e-05,0.0,0 STARLINK-5868,1 56483U 23064AM  23166.65007478  .00001729  00000-0  16142-4 0  9993,2 56483  69.9985 144.2874 0003602 266.8655  93.2128 15.69926955  5662,6737.243,91.724,361.535,356.681,0.0
56483.0,STARLINK-5868,PAYLOAD,2023-06-16 00:46:37,15.69930111,0.0003008,69.9985,143.212,267.4459,92.6392,7.6145e-06,7.03e-06,0.0,0 STARLINK-5868,1 56483U 23064AM  23167.03237693  .00000703  00000-0  76145-5 0  9991,2 56483  69.9985 143.2120 0003008 267.4459  92.6392 15.69930111  6075,6737.234,91.724,361.126,357.072,0.0
56483.0,STARLINK-5868,PAYLOAD,2023-06-16 09:57:08,15.69918885,0.0003252,69.999,142.1353,276.4502,83.6323,3.6696e-06,2.28e-06,0.0,0 STARLINK-5868,1 56483U 23064AM  23167.41468341  .00000228  00000-0  36696-5 0  9998,2 56483  69.9990 142.1353 0003252 276.4502  83.6323 15.69918885  6132,6737.266,91.724,361.322,356.94,0.0
56483.0,STARLINK-5868,PAYLOAD,2023-06-16 16:04:08,15.69923395,0.0003729,69.9967,141.4205,268.4907,91.5862,1.0366e-05,1.034e-05,0.0,0 STARLINK-5868,1 56483U 23064AM  23167.66954452  .00001034  00000-0  10366-4 0  9999,2 56483  69.9967 141.4205 0003729 268.4907  91.5862 15.69923395  5826,6737.253,91.724,361.63,356.606,0.0
56483.0,STARLINK-5868,PAYLOAD,2023-06-16 23:42:55,15.69909383,0.0003155,69.9974,140.5251,265.0272,95.0564,-1.0588e-05,-1.485e-05,0.0,0 STARLINK-5868,1 56483U 23064AM  23167.98814282 -.00001485  00000-0 -10588-4 0  9998,2 56483  69.9974 140.5251 0003155 265.0272  95.0564 15.69909383  6220,6737.293,91.725,361.284,357.033,0.0
56483.0,STARLINK-5868,PAYLOAD,2023-06-17 10:25:10,15.69916986,0.000303,69.9977,139.2718,274.1972,85.8877,1.2525e-05,1.293e-05,0.0,0 STARLINK-5868,1 56483U 23064AM  23168.43415391  .00001293  00000-0  12525-4 0  9995,2 56483  69.9977 139.2718 0003030 274.1972  85.8877 15.69916986  5945,6737.272,91.725,361.178,357.095,0.0
56483.0,STARLINK-5868,PAYLOAD,2023-06-17 15:00:25,15.69926257,0.000304,69.9975,138.7351,277.3494,82.7356,2.2356e-05,2.476e-05,0.0,0 STARLINK-5868,1 56483U 23064AM  23168.62529808  .00002476  00000-0  22356-4 0  9992,2 56483  69.9975 138.7351 0003040 277.3494  82.7356 15.69926257  6328,6737.245,91.724,361.158,357.062,0.0
56483.0,STARLINK-5868,PAYLOAD,2023-06-18 04:46:11,15.6992887,0.0003339,69.9993,137.1231,256.4844,103.598,5.1426e-06,4.06e-06,0.0,0 STARLINK-5868,1 56483U 23064AM  23169.19874601  .00000406  00000-0  51426-5 0  9991,2 56483  69.9993 137.1231 0003339 256.4844 103.5980 15.69928870  6065,6737.238,91.724,361.352,356.853,0.0
56483.0,STARLINK-5868,PAYLOAD,2023-06-18 15:28:27,15.69924902,0.00033,69.9982,135.8675,266.068,94.0139,2.0593e-05,2.264e-05,0.0,0 STARLINK-5868,1 56483U 23064AM  23169.64476613  .00002264  00000-0  20593-4 0  9996,2 56483  69.9982 135.8675 0003300 266.0680  94.0139 15.69924902  6481,6737.249,91.724,361.337,356.891,0.0
56483.0,STARLINK-5868,PAYLOAD,2023-06-19 03:42:28,15.69923301,0.0003341,69.9985,134.4345,262.254,97.8276,2.7425e-05,3.086e-05,0.0,0 STARLINK-5868,1 56483U 23064AM  23170.15450121  .00003086  00000-0  27425-4 0  9994,2 56483  69.9985 134.4345 0003341 262.2540  97.8276 15.69923301  6217,6737.253,91.724,361.369,356.868,0.0
56483.0,STARLINK-5868,PAYLOAD,2023-06-19 05:14:14,15.6992064,0.0003248,69.9992,134.2558,259.9627,100.1202,2.1188e-05,2.335e-05,0.0,0 STARLINK-5868,1 56483U 23064AM  23170.21822058  .00002335  00000-0  21188-4 0  9999,2 56483  69.9992 134.2558 0003248 259.9627 100.1202 15.69920640  6573,6737.261,91.724,361.314,356.938,0.0
56483.0,STARLINK-5868,PAYLOAD,2023-06-19 06:45:59,15.69921323,0.0003336,69.9991,134.0763,258.0488,102.0334,2.1555e-05,2.379e-05,0.0,0 STARLINK-5868,1 56483U 23064AM  23170.28193605  .00002379  00000-0  21555-4 0  9991,2 56483  69.9991 134.0763 0003336 258.0488 102.0334 15.69921323  6230,6737.259,91.724,361.372,356.877,0.0
56483.0,STARLINK-5868,PAYLOAD,2023-06-20 04:10:30,15.69934665,0.0003195,69.9994,131.5695,255.8926,104.1915,3.4957e-05,3.994e-05,0.0,0 STARLINK-5868,1 56483U 23064AM  23171.17396385  .00003994  00000-0  34957-4 0  9994,2 56483  69.9994 131.5695 0003195 255.8926 104.1915 15.69934665  6729,6737.221,91.724,361.238,356.933,0.0
56483.0,STARLINK-5868,PAYLOAD,2023-06-20 08:45:46,15.69916059,0.0003396,69.9993,131.0308,259.9693,100.112,-9.6565e-06,-1.373e-05,0.0,0 STARLINK-5868,1 56483U 23064AM  23171.36512175 -.00001373  00000-0 -96565-5 0  9997,2 56483  69.9993 131.0308 0003396 259.9693 100.1120 15.69916059  6757,6737.274,91.725,361.427,356.851,0.0
